HORIZONS-2              
1 32388C 07063B   23289.00000000 -.00000164  00000-0  00000-0 0  2898
2 32388   0.0733  79.2304 0002207 139.1468  92.1168  1.00272385    13
HORIZONS-2              
1 32388C 07063B   23292.00000000 -.00000164  00000-0  00000-0 0  2926
2 32388   0.0815  84.3918 0002212 138.7677  90.2905  1.00271247    19
GALAXY 18 (G-18)        
1 32951C 08024A   23289.00000000  .00000115  00000-0  00000-0 0  2897
2 32951   0.0283 271.9873 0002956 284.7097  64.6058  1.00269340    16
GALAXY 18 (G-18)        
1 32951C 08024A   23292.00000000  .00000115  00000-0  00000-0 0  2925
2 32951   0.0167 273.4704 0002875 283.6457  67.1234  1.00271857    15
GALAXY 18 (G-18)    [PM]
1 32951C 08024A   23292.35763889  .00000118  00000-0  00000-0 0  2927
2 32951   0.0154 272.7346 0002851 285.1205 195.4867  1.00272212    10
INTELSAT 25 (IS-25)     
1 33153C 08034A   23289.00000000 -.00000133  00000-0  00000-0 0  2894
2 33153   0.1792  88.4320 0003022 120.2439 144.1191  1.00271990    10
INTELSAT 25 (IS-25)     
1 33153C 08034A   23292.00000000 -.00000134  00000-0  00000-0 0  2923
2 33153   0.1897  89.2023 0002845 109.2062 157.3332  1.00273682    19
INTELSAT 25 (IS-25) [PM]
1 33153C 08034A   23293.35416667 -.00000133  00000-0  00000-0 0  2932
2 33153   0.1939  89.9576 0002847 110.4057 284.2213  1.00272639    15
GALAXY 19 (G-19)        
1 33376C 08045A   23289.00000000 -.00000049  00000-0  00000-0 0  2899
2 33376   0.0160 267.8376 0002811 282.7790  96.6806  1.00270811    13
GALAXY 19 (G-19)        
1 33376C 08045A   23292.00000000 -.00000139  00000-0  00000-0 0  2927
2 33376   0.0032 265.1605 0002884 284.6229 100.4659  1.00272971    14
GALAXY 19 (G-19)    [PM]
1 33376C 08045A   23295.44466435 -.00000050  00000-0  00000-0 0  2951
2 33376   0.0227 264.3870 0002916 289.0376 260.3102  1.00269658    10
INTELSAT 14 (IS-14)     
1 36097C 09064A   23289.00000000 -.00000175  00000-0  00000-0 0  2894
2 36097   0.0105 274.0646 0002360 293.3277 131.9107  1.00271816    15
INTELSAT 14 (IS-14)     
1 36097C 09064A   23292.00000000 -.00000226  00000-0  00000-0 0  2929
2 36097   0.0001 281.5696 0002282 285.3501 135.3333  1.00273752    12
INTELSAT 14 (IS-14) [PM]
1 36097C 09064A   23296.79782407 -.00000183  00000-0  00000-0 0  2963
2 36097   0.0223 269.2566 0002653 312.3049  52.6484  1.00265867    13
INTELSAT 15 (IS-15)     
1 36106C 09067A   23289.00000000 -.00000096  00000-0  00000-0 0  2890
2 36106   0.0194 261.8522 0002241 304.9591 262.6325  1.00272512    15
INTELSAT 15 (IS-15)     
1 36106C 09067A   23292.00000000 -.00000098  00000-0  00000-0 0  2920
2 36106   0.0080 255.5174 0002230 314.7871 262.0997  1.00271708    15
INTELSAT 15 (IS-15) [PM]
1 36106C 09067A   23293.41790509 -.00000117  00000-0  00000-0 0  2939
2 36106   0.0036 237.5268 0002189 332.7357  53.9866  1.00271417    11
INTELSAT 16 (IS-16)     
1 36397C 10006A   23289.00000000 -.00000155  00000-0  00000-0 0  2893
2 36397   0.0318 297.8103 0002237 268.3104 101.9692  1.00272675    19
INTELSAT 16 (IS-16)     
1 36397C 10006A   23292.00000000 -.00000155  00000-0  00000-0 0  2921
2 36397   0.0243 309.9413 0002195 259.3574 101.7547  1.00272428    12
INTELSAT 16 (IS-16) [PM]
1 36397C 10006A   23297.88788194 -.00000155  00000-0  00000-0 0  2974
2 36397   0.0195 100.4226 0002297 113.1705  62.8833  1.00273364    15
INTELSAT 17 (IS-17)     
1 37238C 10065B   23289.00000000  .00000088  00000-0  00000-0 0  2897
2 37238   0.0233 265.7747 0002955 309.1849 235.3362  1.00274904    18
INTELSAT 17 (IS-17)     
1 37238C 10065B   23292.00000000  .00000090  00000-0  00000-0 0  2928
2 37238   0.0100 262.0172 0002420 292.5837 258.6416  1.00271296    11
INTELSAT 17 (IS-17) [PM]
1 37238C 10065B   23295.49143519  .00000088  00000-0  00000-0 0  2957
2 37238   0.0207 257.1258 0002356 298.3887  78.0817  1.00273152    18
INTELSAT NEW DAWN       
1 37392C 11016A   23289.00000000  .00000246  00000-0  00000-0 0  2891
2 37392   0.0174 249.9031 0002298 324.3848 202.8109  1.00272016    11
INTELSAT NEW DAWN       
1 37392C 11016A   23292.00000000  .00000246  00000-0  00000-0 0  2929
2 37392   0.0064 237.5005 0002070 339.5061 203.0485  1.00270920    18
INTELSAT NEW DAWN   [PM]
1 37392C 11016A   23296.48793982  .00000257  00000-0  00000-0 0  2969
2 37392   0.0445  38.7572 0001734 356.4004 204.9672  1.00270389    19
INTELSAT 18 (IS-18)     
1 37834C 11056A   23289.00000000  .00000148  00000-0  00000-0 0  2897
2 37834   0.0139 267.0436 0001877 296.2982   0.9444  1.00274104    10
INTELSAT 18 (IS-18)     
1 37834C 11056A   23292.00000000  .00000196  00000-0  00000-0 0  2928
2 37834   0.0019 266.0550 0001786 290.2240  10.9867  1.00269158    16
INTELSAT 18 (IS-18) [PM]
1 37834C 11056A   23295.68518519  .00000143  00000-0  00000-0 0  2959
2 37834   0.0104 253.1903 0001981 316.1681 248.1806  1.00272357    17
INTELSAT 22 (IS-22)     
1 38098C 12011A   23289.00000000  .00000027  00000-0  00000-0 0  2898
2 38098   0.0064 254.5312 0003040 308.4942 253.3738  1.00270070    18
INTELSAT 22 (IS-22)     
1 38098C 12011A   23292.00000000 -.00000026  00000-0  00000-0 0  2926
2 38098   0.0001 196.9246 0002861   5.6328 256.7837  1.00272796    12
INTELSAT 22 (IS-22) [PM]
1 38098C 12011A   23297.96056713  .00000029  00000-0  00000-0 0  2975
2 38098   0.0356  84.4000 0003131 128.0219 238.6110  1.00270658    12
INTELSAT 19 (IS-19)     
1 38356C 12030A   23289.00000000  .00000034  00000-0  00000-0 0  2894
2 38356   0.0187 286.2715 0002988 279.4027 344.6280  1.00271063    10
INTELSAT 19 (IS-19)     
1 38356C 12030A   23292.00000000  .00000035  00000-0  00000-0 0  2923
2 38356   0.0113 307.3477 0002986 261.4647 344.4410  1.00271021    13
INTELSAT 19 (IS-19) [PM]
1 38356C 12030A   23294.74929398  .00000028  00000-0  00000-0 0  2940
2 38356   0.0297 101.1782 0003161  19.6586 344.8625  1.00270544    17
INTELSAT 20 (IS-20)     
1 38740C 12043A   23289.00000000  .00000065  00000-0  00000-0 0  2899
2 38740   0.0175 149.6685 0002484  38.8614 264.2617  1.00271424    14
INTELSAT 20 (IS-20) [PM]
1 38740C 12043A   23291.88599537  .00000065  00000-0  00000-0 0  2919
2 38740   0.0413  74.7506 0002075  60.1168 279.7225  1.00272180    13
INTELSAT 20 (IS-20)     
1 38740C 12043A   23292.00000000  .00000062  00000-0  00000-0 0  2924
2 38740   0.0289 111.9920 0002455  72.5146 271.2492  1.00265349    15
INTELSAT 21 (IS-21)     
1 38749C 12045A   23289.00000000 -.00000194  00000-0  00000-0 0  2894
2 38749   0.0124 121.5933 0001930  78.6041 126.1056  1.00273109    18
INTELSAT 21 (IS-21)     
1 38749C 12045A   23292.00000000 -.00000194  00000-0  00000-0 0  2922
2 38749   0.0118 314.6468 0002021 253.1645 121.4355  1.00269673    12
INTELSAT 21 (IS-21) [PM]
1 38749C 12045A   23295.83488426 -.00000195  00000-0  00000-0 0  2952
2 38749   0.0161 276.8745 0002550 294.7469  61.9750  1.00269354    12
INTELSAT 23 (IS-23)     
1 38867C 12057A   23289.00000000 -.00000195  00000-0  00000-0 0  2899
2 38867   0.0176 244.1327 0000752 331.4563 115.6868  1.00268991    12
INTELSAT 23 (IS-23)     
1 38867C 12057A   23292.00000000 -.00000195  00000-0  00000-0 0  2927
2 38867   0.0197 250.8226 0000722 329.2569 114.2008  1.00270444    12
INTELSAT 23 (IS-23) [PM]
1 38867C 12057A   23296.21511574 -.00000195  00000-0  00000-0 0  2961
2 38867   0.0525 338.5786 0001145 324.6123 112.6805  1.00269191    11
INTELSAT 30 (IS-30)     
1 40271C 14062A   23289.00000000 -.00000062  00000-0  00000-0 0  2892
2 40271   0.0066 257.4298 0002575 191.7294 200.0821  1.00271208    12
INTELSAT 30 (IS-30) [PM]
1 40271C 14062A   23291.30759259 -.00000062  00000-0  00000-0 0  2918
2 40271   0.0458  43.3506 0002554 158.7189 200.1727  1.00273181    12
INTELSAT 30 (IS-30)     
1 40271C 14062A   23292.00000000 -.00000059  00000-0  00000-0 0  2926
2 40271   0.0000 258.5615 0002504 189.4178 204.2141  1.00270973    11
INTELSAT 34 (IS-34)     
1 40874C 15039A   23289.00000000 -.00000195  00000-0  00000-0 0  2893
2 40874   0.0372 297.3836 0001078  73.0967 318.3256  1.00271302    18
INTELSAT 34 (IS-34)     
1 40874C 15039A   23292.00000000 -.00000195  00000-0  00000-0 0  2921
2 40874   0.0319 303.2678 0001510  67.6503 320.8453  1.00270523    17
INTELSAT 34 (IS-34) [PM]
1 40874C 15039A   23292.04940972 -.00000195  00000-0  00000-0 0  2926
2 40874   0.0386 322.3755 0001138  74.9286 312.2939  1.00273502    18
INTELSAT 31 (IS-31)     
1 41581C 16035A   23289.00000000 -.00000061  00000-0  00000-0 0  2898
2 41581   0.0177 246.1503 0001329 327.9715  75.1219  1.00272260    12
INTELSAT 31 (IS-31)     
1 41581C 16035A   23292.00000000 -.00000061  00000-0  00000-0 0  2926
2 41581   0.0072 230.6188 0001341 351.6686  69.9147  1.00271637    16
INTELSAT 31 (IS-31) [PM]
1 41581C 16035A   23292.56990741 -.00000053  00000-0  00000-0 0  2928
2 41581   0.0453  60.8417 0001444   0.1955  76.8902  1.00272631    17
INTELSAT 36 (IS-36)     
1 41747C 16053A   23289.00000000  .00000060  00000-0  00000-0 0  2890
2 41747   0.0209 302.8458 0002681  76.6339  73.3214  1.00271407    10
INTELSAT 36 (IS-36) [PM]
1 41747C 16053A   23291.29649306  .00000071  00000-0  00000-0 0  2917
2 41747   0.0465  51.4334 0002827  75.3993  74.9630  1.00272735    12
INTELSAT 36 (IS-36)     
1 41747C 16053A   23292.00000000 -.00000074  00000-0  00000-0 0  2924
2 41747   0.0218 342.7285 0002679  35.5658  77.4590  1.00270855    14
INTELSAT 33E            
1 41748C 16053B   23289.00000000  .00000298  00000-0  00000-0 0  2894
2 41748   0.0085 266.6394 0001984 293.7088 243.9393  1.00272713    11
INTELSAT 33E            
1 41748C 16053B   23292.00000000  .00000139  00000-0  00000-0 0  2926
2 41748   0.0144 278.2087 0002077 283.3994 245.6443  1.00273071    13
INTELSAT 33E        [PM]
1 41748C 16053B   23293.82888889  .00000139  00000-0  00000-0 0  2937
2 41748   0.0185 152.8578 0001961 348.1492 246.4591  1.00269798    18
